{
  "norad_id": 60396,
  "name": "QIANFAN-18",
  "history": [
    {
      "epoch": "2026-03-28T22:05:35.200320Z",
      "apogee_km": 1077.9889321352412,
      "perigee_km": 1059.1325530454087,
      "latitude_deg": 7.20401820191515e-06,
      "longitude_deg": 130.24596435842176,
      "height_km": 1076.4837087701271,
      "semi_major_axis_km": 7446.697742590324,
      "eccentricity": 0.00126609,
      "inclination_deg": 88.9689,
      "raan_deg": 287.9767,
      "arg_perigee_deg": 238.2491,
      "mean_anomaly_deg": 121.7427,
      "mean_motion_rev_day": 13.51005672
    },
    {
      "epoch": "2026-03-29T03:25:32.331648Z",
      "apogee_km": 1077.9962362212482,
      "perigee_km": 1059.1248153514007,
      "latitude_deg": 1.8090568379191617e-05,
      "longitude_deg": 50.01571790348518,
      "height_km": 1076.5895511376618,
      "semi_major_axis_km": 7446.697525786324,
      "eccentricity": 0.0012671,
      "inclination_deg": 88.9689,
      "raan_deg": 287.9535,
      "arg_perigee_deg": 237.5173,
      "mean_anomaly_deg": 122.4754,
      "mean_motion_rev_day": 13.51005731
    },
    {
      "epoch": "2026-03-30T02:31:59.909664Z",
      "apogee_km": 1078.035243803226,
      "perigee_km": 1059.0848891085097,
      "latitude_deg": -7.985709484601919e-05,
      "longitude_deg": 62.35151040908473,
      "height_km": 1077.0431839186258,
      "semi_major_axis_km": 7446.697066455868,
      "eccentricity": 0.0012724,
      "inclination_deg": 88.9688,
      "raan_deg": 287.8532,
      "arg_perigee_deg": 234.3579,
      "mean_anomaly_deg": 125.6387,
      "mean_motion_rev_day": 13.51005856
    },
    {
      "epoch": "2026-03-30T06:05:17.996928Z",
      "apogee_km": 1078.040934488642,
      "perigee_km": 1059.0789632459237,
      "latitude_deg": -1.6805322746318853e-05,
      "longitude_deg": 8.864748451703958,
      "height_km": 1077.1101392960838,
      "semi_major_axis_km": 7446.696948867282,
      "eccentricity": 0.00127318,
      "inclination_deg": 88.9688,
      "raan_deg": 287.8378,
      "arg_perigee_deg": 233.883,
      "mean_anomaly_deg": 126.1143,
      "mean_motion_rev_day": 13.51005888
    },
    {
      "epoch": "2026-03-30T13:11:54.173184Z",
      "apogee_km": 1078.0527903345173,
      "perigee_km": 1059.0669898114638,
      "latitude_deg": -2.5532571845965906e-06,
      "longitude_deg": -98.10888468574232,
      "height_km": 1077.2424623560978,
      "semi_major_axis_km": 7446.696890072991,
      "eccentricity": 0.00127478,
      "inclination_deg": 88.9688,
      "raan_deg": 287.8069,
      "arg_perigee_deg": 232.9409,
      "mean_anomaly_deg": 127.0577,
      "mean_motion_rev_day": 13.51005904
    },
    {
      "epoch": "2026-03-30T20:18:30.350304Z",
      "apogee_km": 1078.0656887177647,
      "perigee_km": 1059.0539738396365,
      "latitude_deg": -5.524302911733739e-05,
      "longitude_deg": 154.91747736821088,
      "height_km": 1077.3778518944862,
      "semi_major_axis_km": 7446.6968312787,
      "eccentricity": 0.00127652,
      "inclination_deg": 88.9688,
      "raan_deg": 287.776,
      "arg_perigee_deg": 231.9708,
      "mean_anomaly_deg": 128.0291,
      "mean_motion_rev_day": 13.5100592
    },
    {
      "epoch": "2026-03-31T19:24:57.925728Z",
      "apogee_km": 1078.108480429316,
      "perigee_km": 1059.01068237665,
      "latitude_deg": -4.6565561162477555e-05,
      "longitude_deg": 167.2532833685802,
      "height_km": 1077.8053453831646,
      "semi_major_axis_km": 7446.696581402983,
      "eccentricity": 0.0012823,
      "inclination_deg": 88.9687,
      "raan_deg": 287.6757,
      "arg_perigee_deg": 228.8469,
      "mean_anomaly_deg": 131.1576,
      "mean_motion_rev_day": 13.51005988
    },
    {
      "epoch": "2026-04-01T18:31:25.495104Z",
      "apogee_km": 1078.1609950751208,
      "perigee_km": 1058.9574548501869,
      "latitude_deg": 3.474794330140143e-05,
      "longitude_deg": 179.58911584529295,
      "height_km": 1078.2283565348537,
      "semi_major_axis_km": 7446.696224962653,
      "eccentricity": 0.0012894,
      "inclination_deg": 88.9685,
      "raan_deg": 287.5754,
      "arg_perigee_deg": 225.6902,
      "mean_anomaly_deg": 134.3193,
      "mean_motion_rev_day": 13.51006085
    }
  ]
}